ONEWEB-0101             
1 48049U 21025H   25339.11922029  .00000337  00000+0  88871-3 0  9990
2 48049  87.8981 358.8075 0001724  87.1698 272.9629 13.13471128228029
ONEWEB-0113             
1 48050U 21025J   25339.29080551  .00000223  00000+0  57194-3 0  9994
2 48050  87.8989 358.7033 0001804 100.8480 259.2853 13.13984200228143
ONEWEB-0112             
1 48051U 21025K   25339.08535975 -.00000228  00000+0 -65848-3 0  9999
2 48051  87.8990 358.7776 0001679  94.4191 265.7130 13.13471096228118
ONEWEB-0156             
1 48052U 21025L   25339.32235374 -.00000243  00000+0 -70113-3 0  9995
2 48052  87.8990 358.7422 0001598  91.7649 268.3663 13.13470464228124
ONEWEB-0161             
1 48053U 21025M   25339.29696758  .00000157  00000+0  39548-3 0  9998
2 48053  87.8983 358.7630 0001562  90.2487 269.8821 13.13469849228052
ONEWEB-0158             
1 48054U 21025N   25339.33251484 -.00000048  00000+0 -16731-3 0  9997
2 48054  87.8990 358.7397 0002072  92.6532 267.4834 13.13471300228182
ONEWEB-0157             
1 48055U 21025P   25339.12937987  .00000444  00000+0  11815-2 0  9999
2 48055  87.8988 358.7865 0001480  82.0861 278.0437 13.13470322228090
ONEWEB-0162             
1 48056U 21025Q   25339.10553368  .00000008  00000+0 -13279-4 0  9990
2 48056  87.8990 358.7930 0001598  96.1774 263.9538 13.13472191228064
ONEWEB-0155             
1 48057U 21025R   25339.11243973  .00000206  00000+0  52822-3 0  9995
2 48057  87.8987 358.7966 0001767  86.9639 273.1692 13.13472678228205
ONEWEB-0149             
1 48058U 21025S   25339.28680892  .00000363  00000+0  95811-3 0  9998
2 48058  87.8988 358.7558 0001601  99.3406 260.7904 13.13470621228036
ONEWEB-0148             
1 48059U 21025T   25339.32574201 -.00000215  00000+0 -62395-3 0  9999
2 48059  87.8981 358.7681 0001235 106.7618 253.3647 13.13470518228169
ONEWEB-0160             
1 48060U 21025U   25339.11414495  .00000198  00000+0  50634-3 0  9997
2 48060  87.8980 358.8072 0002484 103.2344 256.9063 13.13471169228085
ONEWEB-0163             
1 48061U 21025V   25339.32742291 -.00000172  00000+0 -50479-3 0  9990
2 48061  87.8991 358.7509 0001578  84.4419 275.6890 13.13468219228233
ONEWEB-0159             
1 48062U 21025W   25339.31897252 -.00000231  00000+0 -66802-3 0  9991
2 48062  87.8991 358.7359 0001523  90.6017 269.5287 13.13471061228152
ONEWEB-0164             
1 48063U 21025X   25339.30034947  .00000003  00000+0 -27122-4 0  9994
2 48063  87.8988 358.7471 0001836  93.2074 266.9265 13.13469982228137
ONEWEB-0167             
1 48064U 21025Y   25339.32828455 -.00000174  00000+0 -51207-3 0  9992
2 48064  87.8980 358.7694 0001918  70.7874 289.3463 13.13469162228124
