[{"OBJECT_NAME":"ONEWEB-0101","OBJECT_ID":"2021-025H","EPOCH":"2025-12-05T02:51:40.633056","MEAN_MOTION":13.13471128,"ECCENTRICITY":0.00017249,"INCLINATION":87.8981,"RA_OF_ASC_NODE":358.8075,"ARG_OF_PERICENTER":87.1698,"MEAN_ANOMALY":272.9629,"EPHEMERIS_TYPE":0,"CLASSIFICATION_TYPE":"U","NORAD_CAT_ID":48049,"ELEMENT_SET_NO":999,"REV_AT_EPOCH":22802,"BSTAR":0.00088870963,"MEAN_MOTION_DOT":3.37e-6,"MEAN_MOTION_DDOT":0},{"OBJECT_NAME":"ONEWEB-0113","OBJECT_ID":"2021-025J","EPOCH":"2025-12-05T06:58:45.596064","MEAN_MOTION":13.139842,"ECCENTRICITY":0.00018041,"INCLINATION":87.8989,"RA_OF_ASC_NODE":358.7033,"ARG_OF_PERICENTER":100.848,"MEAN_ANOMALY":259.2853,"EPHEMERIS_TYPE":0,"CLASSIFICATION_TYPE":"U","NORAD_CAT_ID":48050,"ELEMENT_SET_NO":999,"REV_AT_EPOCH":22814,"BSTAR":0.00057194455,"MEAN_MOTION_DOT":2.23e-6,"MEAN_MOTION_DDOT":0},{"OBJECT_NAME":"ONEWEB-0112","OBJECT_ID":"2021-025K","EPOCH":"2025-12-05T02:02:55.082400","MEAN_MOTION":13.13471096,"ECCENTRICITY":0.00016791,"INCLINATION":87.899,"RA_OF_ASC_NODE":358.7776,"ARG_OF_PERICENTER":94.4191,"MEAN_ANOMALY":265.713,"EPHEMERIS_TYPE":0,"CLASSIFICATION_TYPE":"U","NORAD_CAT_ID":48051,"ELEMENT_SET_NO":999,"REV_AT_EPOCH":22811,"BSTAR":-0.00065848396,"MEAN_MOTION_DOT":-2.28e-6,"MEAN_MOTION_DDOT":0},{"OBJECT_NAME":"ONEWEB-0156","OBJECT_ID":"2021-025L","EPOCH":"2025-12-05T07:44:11.363136","MEAN_MOTION":13.13470464,"ECCENTRICITY":0.00015987,"INCLINATION":87.899,"RA_OF_ASC_NODE":358.7422,"ARG_OF_PERICENTER":91.7649,"MEAN_ANOMALY":268.3663,"EPHEMERIS_TYPE":0,"CLASSIFICATION_TYPE":"U","NORAD_CAT_ID":48052,"ELEMENT_SET_NO":999,"REV_AT_EPOCH":22812,"BSTAR":-0.00070113004,"MEAN_MOTION_DOT":-2.43e-6,"MEAN_MOTION_DDOT":0},{"OBJECT_NAME":"ONEWEB-0161","OBJECT_ID":"2021-025M","EPOCH":"2025-12-05T07:07:37.998912","MEAN_MOTION":13.13469849,"ECCENTRICITY":0.00015621,"INCLINATION":87.8983,"RA_OF_ASC_NODE":358.763,"ARG_OF_PERICENTER":90.2487,"MEAN_ANOMALY":269.8821,"EPHEMERIS_TYPE":0,"CLASSIFICATION_TYPE":"U","NORAD_CAT_ID":48053,"ELEMENT_SET_NO":999,"REV_AT_EPOCH":22805,"BSTAR":0.00039547699,"MEAN_MOTION_DOT":1.57e-6,"MEAN_MOTION_DDOT":0},{"OBJECT_NAME":"ONEWEB-0158","OBJECT_ID":"2021-025N","EPOCH":"2025-12-05T07:58:49.282176","MEAN_MOTION":13.134713,"ECCENTRICITY":0.00020728,"INCLINATION":87.899,"RA_OF_ASC_NODE":358.7397,"ARG_OF_PERICENTER":92.6532,"MEAN_ANOMALY":267.4834,"EPHEMERIS_TYPE":0,"CLASSIFICATION_TYPE":"U","NORAD_CAT_ID":48054,"ELEMENT_SET_NO":999,"REV_AT_EPOCH":22818,"BSTAR":-0.00016731413,"MEAN_MOTION_DOT":-4.8e-7,"MEAN_MOTION_DDOT":0},{"OBJECT_NAME":"ONEWEB-0157","OBJECT_ID":"2021-025P","EPOCH":"2025-12-05T03:06:18.420768","MEAN_MOTION":13.13470322,"ECCENTRICITY":0.00014809,"INCLINATION":87.8988,"RA_OF_ASC_NODE":358.7865,"ARG_OF_PERICENTER":82.0861,"MEAN_ANOMALY":278.0437,"EPHEMERIS_TYPE":0,"CLASSIFICATION_TYPE":"U","NORAD_CAT_ID":48055,"ELEMENT_SET_NO":999,"REV_AT_EPOCH":22809,"BSTAR":0.0011814542,"MEAN_MOTION_DOT":4.44e-6,"MEAN_MOTION_DDOT":0},{"OBJECT_NAME":"ONEWEB-0162","OBJECT_ID":"2021-025Q","EPOCH":"2025-12-05T02:31:58.109952","MEAN_MOTION":13.13472191,"ECCENTRICITY":0.00015984,"INCLINATION":87.899,"RA_OF_ASC_NODE":358.793,"ARG_OF_PERICENTER":96.1774,"MEAN_ANOMALY":263.9538,"EPHEMERIS_TYPE":0,"CLASSIFICATION_TYPE":"U","NORAD_CAT_ID":48056,"ELEMENT_SET_NO":999,"REV_AT_EPOCH":22806,"BSTAR":-1.3279279e-5,"MEAN_MOTION_DOT":8.0e-8,"MEAN_MOTION_DDOT":0},{"OBJECT_NAME":"ONEWEB-0155","OBJECT_ID":"2021-025R","EPOCH":"2025-12-05T02:41:54.792672","MEAN_MOTION":13.13472678,"ECCENTRICITY":0.00017672,"INCLINATION":87.8987,"RA_OF_ASC_NODE":358.7966,"ARG_OF_PERICENTER":86.9639,"MEAN_ANOMALY":273.1692,"EPHEMERIS_TYPE":0,"CLASSIFICATION_TYPE":"U","NORAD_CAT_ID":48057,"ELEMENT_SET_NO":999,"REV_AT_EPOCH":22820,"BSTAR":0.00052821708,"MEAN_MOTION_DOT":2.06e-6,"MEAN_MOTION_DDOT":0},{"OBJECT_NAME":"ONEWEB-0149","OBJECT_ID":"2021-025S","EPOCH":"2025-12-05T06:53:00.290688","MEAN_MOTION":13.13470621,"ECCENTRICITY":0.00016018,"INCLINATION":87.8988,"RA_OF_ASC_NODE":358.7558,"ARG_OF_PERICENTER":99.3406,"MEAN_ANOMALY":260.7904,"EPHEMERIS_TYPE":0,"CLASSIFICATION_TYPE":"U","NORAD_CAT_ID":48058,"ELEMENT_SET_NO":999,"REV_AT_EPOCH":22803,"BSTAR":0.00095810835,"MEAN_MOTION_DOT":3.63e-6,"MEAN_MOTION_DDOT":0},{"OBJECT_NAME":"ONEWEB-0148","OBJECT_ID":"2021-025T","EPOCH":"2025-12-05T07:49:04.109664","MEAN_MOTION":13.13470518,"ECCENTRICITY":0.00012357,"INCLINATION":87.8981,"RA_OF_ASC_NODE":358.7681,"ARG_OF_PERICENTER":106.7618,"MEAN_ANOMALY":253.3647,"EPHEMERIS_TYPE":0,"CLASSIFICATION_TYPE":"U","NORAD_CAT_ID":48059,"ELEMENT_SET_NO":999,"REV_AT_EPOCH":22816,"BSTAR":-0.00062394549,"MEAN_MOTION_DOT":-2.15e-6,"MEAN_MOTION_DDOT":0},{"OBJECT_NAME":"ONEWEB-0160","OBJECT_ID":"2021-025U","EPOCH":"2025-12-05T02:44:22.123680","MEAN_MOTION":13.13471169,"ECCENTRICITY":0.00024846,"INCLINATION":87.898,"RA_OF_ASC_NODE":358.8072,"ARG_OF_PERICENTER":103.2344,"MEAN_ANOMALY":256.9063,"EPHEMERIS_TYPE":0,"CLASSIFICATION_TYPE":"U","NORAD_CAT_ID":48060,"ELEMENT_SET_NO":999,"REV_AT_EPOCH":22808,"BSTAR":0.00050633696,"MEAN_MOTION_DOT":1.98e-6,"MEAN_MOTION_DDOT":0},{"OBJECT_NAME":"ONEWEB-0163","OBJECT_ID":"2021-025V","EPOCH":"2025-12-05T07:51:29.339424","MEAN_MOTION":13.13468219,"ECCENTRICITY":0.0001578,"INCLINATION":87.8991,"RA_OF_ASC_NODE":358.7509,"ARG_OF_PERICENTER":84.4419,"MEAN_ANOMALY":275.689,"EPHEMERIS_TYPE":0,"CLASSIFICATION_TYPE":"U","NORAD_CAT_ID":48061,"ELEMENT_SET_NO":999,"REV_AT_EPOCH":22823,"BSTAR":-0.00050478544,"MEAN_MOTION_DOT":-1.72e-6,"MEAN_MOTION_DDOT":0},{"OBJECT_NAME":"ONEWEB-0159","OBJECT_ID":"2021-025W","EPOCH":"2025-12-05T07:39:19.225728","MEAN_MOTION":13.13471061,"ECCENTRICITY":0.00015238,"INCLINATION":87.8991,"RA_OF_ASC_NODE":358.7359,"ARG_OF_PERICENTER":90.6017,"MEAN_ANOMALY":269.5287,"EPHEMERIS_TYPE":0,"CLASSIFICATION_TYPE":"U","NORAD_CAT_ID":48062,"ELEMENT_SET_NO":999,"REV_AT_EPOCH":22815,"BSTAR":-0.00066802054,"MEAN_MOTION_DOT":-2.31e-6,"MEAN_MOTION_DDOT":0},{"OBJECT_NAME":"ONEWEB-0164","OBJECT_ID":"2021-025X","EPOCH":"2025-12-05T07:12:30.194208","MEAN_MOTION":13.13469982,"ECCENTRICITY":0.00018368,"INCLINATION":87.8988,"RA_OF_ASC_NODE":358.7471,"ARG_OF_PERICENTER":93.2074,"MEAN_ANOMALY":266.9265,"EPHEMERIS_TYPE":0,"CLASSIFICATION_TYPE":"U","NORAD_CAT_ID":48063,"ELEMENT_SET_NO":999,"REV_AT_EPOCH":22813,"BSTAR":-2.7121629e-5,"MEAN_MOTION_DOT":3.0e-8,"MEAN_MOTION_DDOT":0},{"OBJECT_NAME":"ONEWEB-0167","OBJECT_ID":"2021-025Y","EPOCH":"2025-12-05T07:52:43.785120","MEAN_MOTION":13.13469162,"ECCENTRICITY":0.00019181,"INCLINATION":87.898,"RA_OF_ASC_NODE":358.7694,"ARG_OF_PERICENTER":70.7874,"MEAN_ANOMALY":289.3463,"EPHEMERIS_TYPE":0,"CLASSIFICATION_TYPE":"U","NORAD_CAT_ID":48064,"ELEMENT_SET_NO":999,"REV_AT_EPOCH":22812,"BSTAR":-0.00051207349,"MEAN_MOTION_DOT":-1.74e-6,"MEAN_MOTION_DDOT":0}]
